CTC1_L_00498001-01
1 10000U 25612VT  26075.70037037  .00000000  00000+0  00000-0 0  9993
2 10000 100.5000   0.0000 0000000   0.0000   0.0000 12.90384021    10
CTC1_L_00498001-02
1 10001U 25918VX  26075.70037037  .00000000  00000+0  00000-0 0  9993
2 10001 100.5000   0.0000 0000000   0.0000  45.0000 12.90384021    10
CTC1_L_00498001-03
1 10002U 24702DV  26075.70037037  .00000000  00000+0  00000-0 0  9994
2 10002 100.5000   0.0000 0000000   0.0000  90.0000 12.90384021    11
CTC1_L_00498001-04
1 10003U 25273HF  26075.70037037  .00000000  00000+0  00000-0 0  9999
2 10003 100.5000   0.0000 0000000   0.0000 135.0000 12.90384021    12
CTC1_L_00498001-05
1 10004U 24682HQ  26075.70037037  .00000000  00000+0  00000-0 0  9993
2 10004 100.5000   0.0000 0000000   0.0000 180.0000 12.90384021    13
CTC1_L_00498001-06
1 10005U 25218XI  26075.70037037  .00000000  00000+0  00000-0 0  9990
2 10005 100.5000   0.0000 0000000   0.0000 225.0000 12.90384021    14
CTC1_L_00498001-07
1 10006U 22100KW  26075.70037037  .00000000  00000+0  00000-0 0  9998
2 10006 100.5000   0.0000 0000000   0.0000 270.0000 12.90384021    15
CTC1_L_00498001-08
1 10007U 26780PI  26075.70037037  .00000000  00000+0  00000-0 0  9997
2 10007 100.5000   0.0000 0000000   0.0000 315.0000 12.90384021    16
CTC1_L_00498002-01
1 10008U 23145RW  26075.70037037  .00000000  00000+0  00000-0 0  9990
2 10008 100.5000  12.0000 0000000   0.0000   6.0000 12.90384021    17
CTC1_L_00498002-02
1 10009U 22107XA  26075.70037037  .00000000  00000+0  00000-0 0  9998
2 10009 100.5000  12.0000 0000000   0.0000  51.0000 12.90384021    18
CTC1_L_00498002-03
1 10010U 22615UF  26075.70037037  .00000000  00000+0  00000-0 0  9994
2 10010 100.5000  12.0000 0000000   0.0000  96.0000 12.90384021    19
CTC1_L_00498002-04
1 10011U 22626QR  26075.70037037  .00000000  00000+0  00000-0 0  9997
2 10011 100.5000  12.0000 0000000   0.0000 141.0000 12.90384021    11
CTC1_L_00498002-05
1 10012U 26038OE  26075.70037037  .00000000  00000+0  00000-0 0  9999
2 10012 100.5000  12.0000 0000000   0.0000 186.0000 12.90384021    11
CTC1_L_00498002-06
1 10013U 26563FG  26075.70037037  .00000000  00000+0  00000-0 0  9993
2 10013 100.5000  12.0000 0000000   0.0000 231.0000 12.90384021    13
CTC1_L_00498002-07
1 10014U 23852LF  26075.70037037  .00000000  00000+0  00000-0 0  9992
2 10014 100.5000  12.0000 0000000   0.0000 276.0000 12.90384021    13
CTC1_L_00498002-08
1 10015U 24175PR  26075.70037037  .00000000  00000+0  00000-0 0  9992
2 10015 100.5000  12.0000 0000000   0.0000 321.0000 12.90384021    15
CTC1_L_00498003-01
1 10016U 22143DB  26075.70037037  .00000000  00000+0  00000-0 0  9996
2 10016 100.5000  24.0000 0000000   0.0000  12.0000 12.90384021    16
CTC1_L_00498003-02
1 10017U 26449OW  26075.70037037  .00000000  00000+0  00000-0 0  9990
2 10017 100.5000  24.0000 0000000   0.0000  57.0000 12.90384021    16
CTC1_L_00498003-03
1 10018U 26863OG  26075.70037037  .00000000  00000+0  00000-0 0  9991
2 10018 100.5000  24.0000 0000000   0.0000 102.0000 12.90384021    18
CTC1_L_00498003-04
1 10019U 26413AV  26075.70037037  .00000000  00000+0  00000-0 0  9993
2 10019 100.5000  24.0000 0000000   0.0000 147.0000 12.90384021    18
CTC1_L_00498003-05
1 10020U 26024XT  26075.70037037  .00000000  00000+0  00000-0 0  9993
2 10020 100.5000  24.0000 0000000   0.0000 192.0000 12.90384021    10
CTC1_L_00498003-06
1 10021U 24934VB  26075.70037037  .00000000  00000+0  00000-0 0  9992
2 10021 100.5000  24.0000 0000000   0.0000 237.0000 12.90384021    11
CTC1_L_00498003-07
1 10022U 24917ZM  26075.70037037  .00000000  00000+0  00000-0 0  9994
2 10022 100.5000  24.0000 0000000   0.0000 282.0000 12.90384021    12
CTC1_L_00498003-08
1 10023U 26616IS  26075.70037037  .00000000  00000+0  00000-0 0  9993
2 10023 100.5000  24.0000 0000000   0.0000 327.0000 12.90384021    13
CTC1_L_00498004-01
1 10024U 25877GQ  26075.70037037  .00000000  00000+0  00000-0 0  9992
2 10024 100.5000  36.0000 0000000   0.0000  18.0000 12.90384021    14
CTC1_L_00498004-02
1 10025U 25821XR  26075.70037037  .00000000  00000+0  00000-0 0  9992
2 10025 100.5000  36.0000 0000000   0.0000  63.0000 12.90384021    15
CTC1_L_00498004-03
1 10026U 22693GZ  26075.70037037  .00000000  00000+0  00000-0 0  9997
2 10026 100.5000  36.0000 0000000   0.0000 108.0000 12.90384021    16
CTC1_L_00498004-04
1 10027U 23497V   26075.70037037  .00000000  00000+0  00000-0 0  9991
2 10027 100.5000  36.0000 0000000   0.0000 153.0000 12.90384021    17
CTC1_L_00498004-05
1 10028U 24168PW  26075.70037037  .00000000  00000+0  00000-0 0  9998
2 10028 100.5000  36.0000 0000000   0.0000 198.0000 12.90384021    17
CTC1_L_00498004-06
1 10029U 26617XB  26075.70037037  .00000000  00000+0  00000-0 0  9990
2 10029 100.5000  36.0000 0000000   0.0000 243.0000 12.90384021    19
CTC1_L_00498004-07
1 10030U 23343FY  26075.70037037  .00000000  00000+0  00000-0 0  9995
2 10030 100.5000  36.0000 0000000   0.0000 288.0000 12.90384021    10
CTC1_L_00498004-08
1 10031U 24184EO  26075.70037037  .00000000  00000+0  00000-0 0  9990
2 10031 100.5000  36.0000 0000000   0.0000 333.0000 12.90384021    12
CTC1_L_00498005-01
1 10032U 26781SX  26075.70037037  .00000000  00000+0  00000-0 0  9996
2 10032 100.5000  48.0000 0000000   0.0000  24.0000 12.90384021    13
CTC1_L_00498005-02
1 10033U 24959NW  26075.70037037  .00000000  00000+0  00000-0 0  9992
2 10033 100.5000  48.0000 0000000   0.0000  69.0000 12.90384021    13
CTC1_L_00498005-03
1 10034U 22523GG  26075.70037037  .00000000  00000+0  00000-0 0  9998
2 10034 100.5000  48.0000 0000000   0.0000 114.0000 12.90384021    15
CTC1_L_00498005-04
1 10035U 23899BG  26075.70037037  .00000000  00000+0  00000-0 0  9996
2 10035 100.5000  48.0000 0000000   0.0000 159.0000 12.90384021    15
CTC1_L_00498005-05
1 10036U 24966Q   26075.70037037  .00000000  00000+0  00000-0 0  9993
2 10036 100.5000  48.0000 0000000   0.0000 204.0000 12.90384021    17
CTC1_L_00498005-06
1 10037U 22854CJ  26075.70037037  .00000000  00000+0  00000-0 0  9998
2 10037 100.5000  48.0000 0000000   0.0000 249.0000 12.90384021    17
CTC1_L_00498005-07
1 10038U 24757VP  26075.70037037  .00000000  00000+0  00000-0 0  9993
2 10038 100.5000  48.0000 0000000   0.0000 294.0000 12.90384021    18
CTC1_L_00498005-08
1 10039U 26599SB  26075.70037037  .00000000  00000+0  00000-0 0  9990
2 10039 100.5000  48.0000 0000000   0.0000 339.0000 12.90384021    19
CTC1_L_00498006-01
1 10040U 22501MY  26075.70037037  .00000000  00000+0  00000-0 0  9991
2 10040 100.5000  60.0000 0000000   0.0000  30.0000 12.90384021    13
CTC1_L_00498006-02
1 10041U 26050NO  26075.70037037  .00000000  00000+0  00000-0 0  9995
2 10041 100.5000  60.0000 0000000   0.0000  75.0000 12.90384021    13
CTC1_L_00498006-03
1 10042U 22619AS  26075.70037037  .00000000  00000+0  00000-0 0  9993
2 10042 100.5000  60.0000 0000000   0.0000 120.0000 12.90384021    15
CTC1_L_00498006-04
1 10043U 24753C   26075.70037037  .00000000  00000+0  00000-0 0  9995
2 10043 100.5000  60.0000 0000000   0.0000 165.0000 12.90384021    15
CTC1_L_00498006-05
1 10044U 24345BV  26075.70037037  .00000000  00000+0  00000-0 0  9993
2 10044 100.5000  60.0000 0000000   0.0000 210.0000 12.90384021    17
CTC1_L_00498006-06
1 10045U 23121OQ  26075.70037037  .00000000  00000+0  00000-0 0  9995
2 10045 100.5000  60.0000 0000000   0.0000 255.0000 12.90384021    17
CTC1_L_00498006-07
1 10046U 26906CJ  26075.70037037  .00000000  00000+0  00000-0 0  9990
2 10046 100.5000  60.0000 0000000   0.0000 300.0000 12.90384021    19
CTC1_L_00498006-08
1 10047U 23325QC  26075.70037037  .00000000  00000+0  00000-0 0  9993
2 10047 100.5000  60.0000 0000000   0.0000 345.0000 12.90384021    19
CTC1_L_00498007-01
1 10048U 23371WZ  26075.70037037  .00000000  00000+0  00000-0 0  9995
2 10048 100.5000  72.0000 0000000   0.0000  36.0000 12.90384021    10
CTC1_L_00498007-02
1 10049U 22430XN  26075.70037037  .00000000  00000+0  00000-0 0  9991
2 10049 100.5000  72.0000 0000000   0.0000  81.0000 12.90384021    11
CTC1_L_00498007-03
1 10050U 22856QT  26075.70037037  .00000000  00000+0  00000-0 0  9995
2 10050 100.5000  72.0000 0000000   0.0000 126.0000 12.90384021    13
CTC1_L_00498007-04
1 10051U 22330KF  26075.70037037  .00000000  00000+0  00000-0 0  9993
2 10051 100.5000  72.0000 0000000   0.0000 171.0000 12.90384021    14
CTC1_L_00498007-05
1 10052U 22758JB  26075.70037037  .00000000  00000+0  00000-0 0  9998
2 10052 100.5000  72.0000 0000000   0.0000 216.0000 12.90384021    15
CTC1_L_00498007-06
1 10053U 22293HO  26075.70037037  .00000000  00000+0  00000-0 0  9993
2 10053 100.5000  72.0000 0000000   0.0000 261.0000 12.90384021    16
CTC1_L_00498007-07
1 10054U 25799RU  26075.70037037  .00000000  00000+0  00000-0 0  9998
2 10054 100.5000  72.0000 0000000   0.0000 306.0000 12.90384021    17
CTC1_L_00498007-08
1 10055U 22551OQ  26075.70037037  .00000000  00000+0  00000-0 0  9992
2 10055 100.5000  72.0000 0000000   0.0000 351.0000 12.90384021    18
CTC1_L_00498008-01
1 10056U 23264AL  26075.70037037  .00000000  00000+0  00000-0 0  9995
2 10056 100.5000  84.0000 0000000   0.0000  42.0000 12.90384021    19
CTC1_L_00498008-02
1 10057U 23719HR  26075.70037037  .00000000  00000+0  00000-0 0  9991
2 10057 100.5000  84.0000 0000000   0.0000  87.0000 12.90384021    19
CTC1_L_00498008-03
1 10058U 24529BL  26075.70037037  .00000000  00000+0  00000-0 0  9992
2 10058 100.5000  84.0000 0000000   0.0000 132.0000 12.90384021    11
CTC1_L_00498008-04
1 10059U 22129FZ  26075.70037037  .00000000  00000+0  00000-0 0  9997
2 10059 100.5000  84.0000 0000000   0.0000 177.0000 12.90384021    11
CTC1_L_00498008-05
1 10060U 26334VL  26075.70037037  .00000000  00000+0  00000-0 0  9991
2 10060 100.5000  84.0000 0000000   0.0000 222.0000 12.90384021    14
CTC1_L_00498008-06
1 10061U 23450NY  26075.70037037  .00000000  00000+0  00000-0 0  9998
2 10061 100.5000  84.0000 0000000   0.0000 267.0000 12.90384021    14
